{
  "type": "FeatureCollection",
  "features": [
    {
      "type": "Feature",
      "properties": {
        "norad_id": 66401,
        "name": "STARLINK-35668",
        "group": "last-30-days",
        "lat": 18.500382932322218,
        "lon": 83.90099737892989,
        "alt_km": 445.00752007227857,
        "timestamp": "2025-12-09T16:56:35.357500+00:00",
        "meta_object_name": "STARLINK-35668",
        "meta_object_id": "2025-257X",
        "meta_epoch": "2025-12-09T12:00:02.000160",
        "meta_mean_motion": 15.39591353,
        "meta_eccentricity": 0.0001372,
        "meta_inclination": 53.1594,
        "meta_ra_of_asc_node": 279.4002,
        "meta_arg_of_pericenter": 98.0302,
        "meta_mean_anomaly": 356.4188,
        "meta_ephemeris_type": 0,
        "meta_classification_type": "U",
        "meta_norad_cat_id": 66401,
        "meta_element_set_no": 999,
        "meta_rev_at_epoch": 597,
        "meta_bstar": 0.00036923,
        "meta_mean_motion_dot": 0.00014383,
        "meta_mean_motion_ddot": 0,
        "tle_line1": "1 66401U 25257X   25343.50002315  .00014383  00000+0  36923-3 0  9995",
        "tle_line2": "2 66401  53.1594 279.4002 0001372  98.0302 356.4188 15.39591353  5975"
      },
      "geometry": {
        "type": "Point",
        "coordinates": [
          83.90099737892989,
          18.500382932322218
        ]
      }
    },
    {
      "type": "Feature",
      "properties": {
        "norad_id": 66402,
        "name": "STARLINK-35644",
        "group": "last-30-days",
        "lat": 37.24200077026509,
        "lon": 63.73478606644552,
        "alt_km": 441.78170810640313,
        "timestamp": "2025-12-09T16:56:35.357510+00:00",
        "meta_object_name": "STARLINK-35644",
        "meta_object_id": "2025-257Y",
        "meta_epoch": "2025-12-09T12:00:02.000160",
        "meta_mean_motion": 15.3958796,
        "meta_eccentricity": 0.0001235,
        "meta_inclination": 53.1596,
        "meta_ra_of_asc_node": 279.4515,
        "meta_arg_of_pericenter": 99.3381,
        "meta_mean_anomaly": 329.3659,
        "meta_ephemeris_type": 0,
        "meta_classification_type": "U",
        "meta_norad_cat_id": 66402,
        "meta_element_set_no": 999,
        "meta_rev_at_epoch": 597,
        "meta_bstar": 0.00040854,
        "meta_mean_motion_dot": 0.00015959,
        "meta_mean_motion_ddot": 0,
        "tle_line1": "1 66402U 25257Y   25343.50002315  .00015959  00000+0  40854-3 0  9994",
        "tle_line2": "2 66402  53.1596 279.4515 0001235  99.3381 329.3659 15.39587960  5977"
      },
      "geometry": {
        "type": "Point",
        "coordinates": [
          63.73478606644552,
          37.24200077026509
        ]
      }
    },
    {
      "type": "Feature",
      "properties": {
        "norad_id": 66403,
        "name": "STARLINK-35602",
        "group": "last-30-days",
        "lat": -0.4422310904304014,
        "lon": 98.7132135007514,
        "alt_km": 448.1600877378405,
        "timestamp": "2025-12-09T16:56:35.357521+00:00",
        "meta_object_name": "STARLINK-35602",
        "meta_object_id": "2025-257Z",
        "meta_epoch": "2025-12-09T12:00:02.000160",
        "meta_mean_motion": 15.39593258,
        "meta_eccentricity": 0.0001093,
        "meta_inclination": 53.1587,
        "meta_ra_of_asc_node": 279.3523,
        "meta_arg_of_pericenter": 96.8507,
        "meta_mean_anomaly": 21.5036,
        "meta_ephemeris_type": 0,
        "meta_classification_type": "U",
        "meta_norad_cat_id": 66403,
        "meta_element_set_no": 999,
        "meta_rev_at_epoch": 597,
        "meta_bstar": 0.00043358,
        "meta_mean_motion_dot": 0.00016967,
        "meta_mean_motion_ddot": 0,
        "tle_line1": "1 66403U 25257Z   25343.50002315  .00016967  00000+0  43358-3 0  9997",
        "tle_line2": "2 66403  53.1587 279.3523 0001093  96.8507  21.5036 15.39593258  5977"
      },
      "geometry": {
        "type": "Point",
        "coordinates": [
          98.7132135007514,
          -0.4422310904304014
        ]
      }
    },
    {
      "type": "Feature",
      "properties": {
        "norad_id": 66404,
        "name": "STARLINK-35691",
        "group": "last-30-days",
        "lat": -1.9143324108286712,
        "lon": 99.8133038623531,
        "alt_km": 448.4096763225216,
        "timestamp": "2025-12-09T16:56:35.357531+00:00",
        "meta_object_name": "STARLINK-35691",
        "meta_object_id": "2025-257AA",
        "meta_epoch": "2025-12-09T12:00:02.000160",
        "meta_mean_motion": 15.39586013,
        "meta_eccentricity": 0.0001001,
        "meta_inclination": 53.1589,
        "meta_ra_of_asc_node": 279.348,
        "meta_arg_of_pericenter": 95.6081,
        "meta_mean_anomaly": 24.5919,
        "meta_ephemeris_type": 0,
        "meta_classification_type": "U",
        "meta_norad_cat_id": 66404,
        "meta_element_set_no": 999,
        "meta_rev_at_epoch": 597,
        "meta_bstar": 0.00053717,
        "meta_mean_motion_dot": 0.00021122,
        "meta_mean_motion_ddot": 0,
        "tle_line1": "1 66404U 25257AA  25343.50002315  .00021122  00000+0  53717-3 0  9997",
        "tle_line2": "2 66404  53.1589 279.3480 0001001  95.6081  24.5919 15.39586013  5979"
      },
      "geometry": {
        "type": "Point",
        "coordinates": [
          99.8133038623531,
          -1.9143324108286712
        ]
      }
    },
    {
      "type": "Feature",
      "properties": {
        "norad_id": 66405,
        "name": "STARLINK-35683",
        "group": "last-30-days",
        "lat": -21.860706701007448,
        "lon": 115.8314058865609,
        "alt_km": 447.5816026252078,
        "timestamp": "2025-12-09T16:56:35.357542+00:00",
        "meta_object_name": "STARLINK-35683",
        "meta_object_id": "2025-257AB",
        "meta_epoch": "2025-12-09T12:00:02.000160",
        "meta_mean_motion": 15.41650584,
        "meta_eccentricity": 0.0001485,
        "meta_inclination": 53.159,
        "meta_ra_of_asc_node": 279.2988,
        "meta_arg_of_pericenter": 99.4432,
        "meta_mean_anomaly": 44.9382,
        "meta_ephemeris_type": 0,
        "meta_classification_type": "U",
        "meta_norad_cat_id": 66405,
        "meta_element_set_no": 999,
        "meta_rev_at_epoch": 581,
        "meta_bstar": -0.056692,
        "meta_mean_motion_dot": -0.02142607,
        "meta_mean_motion_ddot": 0,
        "tle_line1": "1 66405U 25257AB  25343.50002315 -.02142607  00000+0 -56692-1 0  9997",
        "tle_line2": "2 66405  53.1590 279.2988 0001485  99.4432  44.9382 15.41650584  5813"
      },
      "geometry": {
        "type": "Point",
        "coordinates": [
          115.8314058865609,
          -21.860706701007448
        ]
      }
    },
    {
      "type": "Feature",
      "properties": {
        "norad_id": 66406,
        "name": "STARLINK-34840",
        "group": "last-30-days",
        "lat": -45.73789447272886,
        "lon": 148.54791152468565,
        "alt_km": 423.36578683913376,
        "timestamp": "2025-12-09T16:56:35.357554+00:00",
        "meta_object_name": "STARLINK-34840",
        "meta_object_id": "2025-257AC",
        "meta_epoch": "2025-12-09T03:30:43.394976",
        "meta_mean_motion": 15.49354882,
        "meta_eccentricity": 0.00015279,
        "meta_inclination": 53.1583,
        "meta_ra_of_asc_node": 280.9311,
        "meta_arg_of_pericenter": 119.5894,
        "meta_mean_anomaly": 240.5267,
        "meta_ephemeris_type": 0,
        "meta_classification_type": "U",
        "meta_norad_cat_id": 66406,
        "meta_element_set_no": 999,
        "meta_rev_at_epoch": 576,
        "meta_bstar": 0.0021272153,
        "meta_mean_motion_dot": 0.00119885,
        "meta_mean_motion_ddot": 0,
        "tle_line1": "1 66406U 25257AC  25343.14633559  .00119885  00000+0  21272-2 0  9993",
        "tle_line2": "2 66406  53.1583 280.9311 0001527 119.5894 240.5267 15.49354882  5768"
      },
      "geometry": {
        "type": "Point",
        "coordinates": [
          148.54791152468565,
          -45.73789447272886
        ]
      }
    },
    {
      "type": "Feature",
      "properties": {
        "norad_id": 66407,
        "name": "STARLINK-35686",
        "group": "last-30-days",
        "lat": -35.890700157301396,
        "lon": 131.14384625862922,
        "alt_km": 439.7988417423885,
        "timestamp": "2025-12-09T16:56:35.357564+00:00",
        "meta_object_name": "STARLINK-35686",
        "meta_object_id": "2025-257AD",
        "meta_epoch": "2025-12-09T12:00:02.000160",
        "meta_mean_motion": 15.4469371,
        "meta_eccentricity": 0.0001196,
        "meta_inclination": 53.1587,
        "meta_ra_of_asc_node": 279.2642,
        "meta_arg_of_pericenter": 85.7624,
        "meta_mean_anomaly": 75.756,
        "meta_ephemeris_type": 0,
        "meta_classification_type": "U",
        "meta_norad_cat_id": 66407,
        "meta_element_set_no": 999,
        "meta_rev_at_epoch": 597,
        "meta_bstar": -0.049686,
        "meta_mean_motion_dot": -0.0208941,
        "meta_mean_motion_ddot": 0,
        "tle_line1": "1 66407U 25257AD  25343.50002315 -.02089410  00000+0 -49686-1 0  9996",
        "tle_line2": "2 66407  53.1587 279.2642 0001196  85.7624  75.7560 15.44693710  5976"
      },
      "geometry": {
        "type": "Point",
        "coordinates": [
          131.14384625862922,
          -35.890700157301396
        ]
      }
    }
  ]
}